NORAD_CAT_ID,OBJECT_NAME,OBJECT_TYPE,EPOCH,MEAN_MOTION,ECCENTRICITY,INCLINATION,RA_OF_ASC_NODE,ARG_OF_PERICENTER,MEAN_ANOMALY,BSTAR,MEAN_MOTION_DOT,MEAN_MOTION_DDOT,TLE_LINE0,TLE_LINE1,TLE_LINE2,SEMIMAJOR_AXIS,PERIOD,APOGEE,PERIGEE,DECAYED
54809.0,STARLINK-5414,PAYLOAD,2024-06-08 22:07:46,15.08846955,0.000137,53.2186,16.2164,83.2096,276.9052,-3.2645e-05,-8.08e-06,0.0,0 STARLINK-5414,1 54809U 22175BD  24160.92206500 -.00000808  00000-0 -32645-4 0  9992,2 54809  53.2186  16.2164 0001370  83.2096 276.9052 15.08846955 83702,6917.859,95.437,540.672,538.776,0.0
54809.0,STARLINK-5414,PAYLOAD,2024-06-08 23:43:08,15.08850223,0.0001371,53.2202,15.9146,82.2999,277.8149,0.00014212,1.975e-05,0.0,0 STARLINK-5414,1 54809U 22175BD  24160.98829715  .00001975  00000-0  14212-3 0  9990,2 54809  53.2202  15.9146 0001371  82.2999 277.8149 15.08850223 81550,6917.849,95.437,540.663,538.766,0.0
54809.0,STARLINK-5414,PAYLOAD,2024-06-09 20:23:10,15.08835597,0.0001379,53.2184,12.0533,82.5414,277.5734,5.9831e-05,6.64e-06,0.0,0 STARLINK-5414,1 54809U 22175BD  24161.84943108  .00000664  00000-0  59831-4 0  9990,2 54809  53.2184  12.0533 0001379  82.5414 277.5734 15.08835597 81688,6917.894,95.438,540.713,538.805,0.0
54809.0,STARLINK-5414,PAYLOAD,2024-06-10 07:30:52,15.08840295,0.0001589,53.2183,9.9708,85.0632,275.0541,9.8406e-05,1.278e-05,0.0,0 STARLINK-5414,1 54809U 22175BD  24162.31310803  .00001278  00000-0  98406-4 0  9996,2 54809  53.2183   9.9708 0001589  85.0632 275.0541 15.08840295 83917,6917.879,95.438,540.844,538.645,0.0
54809.0,STARLINK-5414,PAYLOAD,2024-06-10 20:13:57,15.08847579,0.0001467,53.219,7.5905,86.7639,273.3521,9.8523e-05,1.281e-05,0.0,0 STARLINK-5414,1 54809U 22175BD  24162.84302355  .00001281  00000-0  98523-4 0  9991,2 54809  53.2190   7.5905 0001467  86.7639 273.3521 15.08847579 81838,6917.857,95.437,540.737,538.707,0.0
54809.0,STARLINK-5414,PAYLOAD,2024-06-10 23:24:42,15.08855685,0.0001332,53.2198,6.9926,103.3232,256.7908,0.00010393,1.367e-05,0.0,0 STARLINK-5414,1 54809U 22175BD  24162.97549545  .00001367  00000-0  10393-3 0  9992,2 54809  53.2198   6.9926 0001332 103.3232 256.7908 15.08855685 81851,6917.832,95.437,540.619,538.776,0.0
54809.0,STARLINK-5414,PAYLOAD,2024-06-11 23:15:30,15.08847924,0.0001421,53.2188,2.5334,87.881,272.2345,0.00011722,1.578e-05,0.0,0 STARLINK-5414,1 54809U 22175BD  24163.96910162  .00001578  00000-0  11722-3 0  9990,2 54809  53.2188   2.5334 0001421  87.8810 272.2345 15.08847924 82005,6917.856,95.437,540.704,538.738,0.0
54809.0,STARLINK-5414,PAYLOAD,2024-06-12 18:20:08,15.08838051,0.0001479,53.2182,358.9616,97.2145,262.9015,-5.3863e-05,-1.145e-05,0.0,0 STARLINK-5414,1 54809U 22175BD  24164.76399177 -.00001145  00000-0 -53863-4 0  9991,2 54809  53.2182 358.9616 0001479  97.2145 262.9015 15.08838051 82123,6917.886,95.438,540.775,538.728,0.0
54809.0,STARLINK-5414,PAYLOAD,2024-06-13 11:49:23,15.08835143,0.0001297,53.2191,355.6958,88.5289,271.5852,8.2965e-05,1.033e-05,0.0,0 STARLINK-5414,1 54809U 22175BD  24165.49263173  .00001033  00000-0  82965-4 0  9997,2 54809  53.2191 355.6958 0001297  88.5289 271.5852 15.08835143 84391,6917.895,95.438,540.657,538.863,0.0
54809.0,STARLINK-5414,PAYLOAD,2024-06-13 19:46:18,15.08845739,0.0001206,53.219,354.2104,93.1774,266.9356,7.5493e-05,9.14e-06,0.0,0 STARLINK-5414,1 54809U 22175BD  24165.82382560  .00000914  00000-0  75493-4 0  9991,2 54809  53.2190 354.2104 0001206  93.1774 266.9356 15.08845739 84444,6917.863,95.437,540.562,538.894,0.0
54809.0,STARLINK-5414,PAYLOAD,2024-06-14 05:18:37,15.08845484,0.000122,53.219,352.4263,91.0613,269.0519,5.5947e-05,6.03e-06,0.0,0 STARLINK-5414,1 54809U 22175BD  24166.22126603  .00000603  00000-0  55947-4 0  9997,2 54809  53.2190 352.4263 0001220  91.0613 269.0519 15.08845484 84504,6917.864,95.437,540.573,538.885,0.0
54809.0,STARLINK-5414,PAYLOAD,2024-06-14 21:12:29,15.08838369,0.0001284,53.2192,349.4527,90.1641,269.9499,0.00010321,1.355e-05,0.0,0 STARLINK-5414,1 54809U 22175BD  24166.88367271  .00001355  00000-0  10321-3 0  9998,2 54809  53.2192 349.4527 0001284  90.1641 269.9499 15.08838369 82447,6917.885,95.438,540.639,538.862,0.0
54809.0,STARLINK-5414,PAYLOAD,2024-06-15 11:30:57,15.08839097,0.0001262,53.2192,346.7763,91.1904,268.9233,7.921e-05,9.73e-06,0.0,0 STARLINK-5414,1 54809U 22175BD  24167.47983439  .00000973  00000-0  79210-4 0  9992,2 54809  53.2192 346.7763 0001262  91.1904 268.9233 15.08839097 84691,6917.883,95.438,540.621,538.875,0.0
54809.0,STARLINK-5414,PAYLOAD,2024-06-15 19:27:52,15.08847443,0.0001274,53.219,345.2884,82.7936,277.3201,0.00010959,1.457e-05,0.0,0 STARLINK-5414,1 54809U 22175BD  24167.81102937  .00001457  00000-0  10959-3 0  9998,2 54809  53.2190 345.2884 0001274  82.7936 277.3201 15.08847443 84740,6917.858,95.437,540.604,538.841,0.0
54809.0,STARLINK-5414,PAYLOAD,2024-06-16 05:00:11,15.08842297,0.0001342,53.2184,343.5057,89.8237,270.2909,8.5766e-05,1.077e-05,0.0,0 STARLINK-5414,1 54809U 22175BD  24168.20847068  .00001077  00000-0  85766-4 0  9990,2 54809  53.2184 343.5057 0001342  89.8237 270.2909 15.08842297 84800,6917.873,95.437,540.667,538.81,0.0
54809.0,STARLINK-5414,PAYLOAD,2024-06-16 19:18:40,15.08840197,0.0001288,53.2184,340.8278,83.4078,276.7061,7.4404e-05,8.96e-06,0.0,0 STARLINK-5414,1 54809U 22175BD  24168.80463516  .00000896  00000-0  74404-4 0  9993,2 54809  53.2184 340.8278 0001288  83.4078 276.7061 15.08840197 84893,6917.88,95.438,540.636,538.854,0.0
54809.0,STARLINK-5414,PAYLOAD,2024-06-17 17:34:04,15.08837225,0.0001054,53.2182,336.6621,94.9135,265.1977,0.00017004,2.419e-05,0.0,0 STARLINK-5414,1 54809U 22175BD  24169.73199471  .00002419  00000-0  17004-3 0  9997,2 54809  53.2182 336.6621 0001054  94.9135 265.1977 15.08837225 85031,6917.889,95.438,540.483,539.025,0.0
54809.0,STARLINK-5414,PAYLOAD,2024-06-18 04:41:45,15.08846407,0.00012,53.218,334.581,105.3613,254.7512,1.8045e-05,-1e-08,0.0,0 STARLINK-5414,1 54809U 22175BD  24170.19567056 -.00000001  00000-0  18045-4 0  9990,2 54809  53.2180 334.5810 0001200 105.3613 254.7512 15.08846407 82945,6917.861,95.437,540.556,538.896,0.0
54809.0,STARLINK-5414,PAYLOAD,2024-06-18 14:14:04,15.088808,0.0001668,53.2176,332.799,76.7861,283.3317,-0.00061389,-0.00010056,0.0,0 STARLINK-5414,1 54809U 22175BD  24170.59310274 -.00010056  00000-0 -61389-3 0  9992,2 54809  53.2176 332.7990 0001668  76.7861 283.3317 15.08880800 85166,6917.756,95.435,540.775,538.467,0.0
54809.0,STARLINK-5414,PAYLOAD,2024-06-18 20:35:37,15.08844823,0.00014,53.2178,331.6076,94.8676,265.2476,6.7166e-05,7.81e-06,0.0,0 STARLINK-5414,1 54809U 22175BD  24170.85807215  .00000781  00000-0  67166-4 0  9999,2 54809  53.2178 331.6076 0001400  94.8676 265.2476 15.08844823 85205,6917.866,95.437,540.699,538.762,0.0
54809.0,STARLINK-5414,PAYLOAD,2024-06-19 10:54:06,15.08836065,0.0001346,53.2198,328.9285,102.8499,257.2644,2.7279e-05,1.46e-06,0.0,0 STARLINK-5414,1 54809U 22175BD  24171.45423901  .00000146  00000-0  27279-4 0  9998,2 54809  53.2198 328.9285 0001346 102.8499 257.2644 15.08836065 83137,6917.892,95.438,540.689,538.826,0.0
54809.0,STARLINK-5414,PAYLOAD,2024-06-19 14:04:52,15.08839183,0.0001424,53.2187,328.3366,105.1826,254.9324,2.6641e-05,1.36e-06,0.0,0 STARLINK-5414,1 54809U 22175BD  24171.58671737  .00000136  00000-0  26641-4 0  9995,2 54809  53.2187 328.3366 0001424 105.1826 254.9324 15.08839183 85311,6917.883,95.438,540.733,538.763,0.0
54809.0,STARLINK-5414,PAYLOAD,2024-06-19 17:15:38,15.08841247,0.0001292,53.2187,327.742,95.1782,264.9357,4.4406e-05,4.19e-06,0.0,0 STARLINK-5414,1 54809U 22175BD  24171.71919589  .00000419  00000-0  44406-4 0  9993,2 54809  53.2187 327.7420 0001292  95.1782 264.9357 15.08841247 85330,6917.877,95.437,540.635,538.848,0.0
54809.0,STARLINK-5414,PAYLOAD,2024-06-20 13:55:39,15.08838985,0.0001275,53.2188,323.8783,95.2341,264.8796,7.1886e-05,8.56e-06,0.0,0 STARLINK-5414,1 54809U 22175BD  24172.58031856  .00000856  00000-0  71886-4 0  9998,2 54809  53.2188 323.8783 0001275  95.2341 264.8796 15.08838985 85468,6917.883,95.438,540.631,538.866,0.0
54809.0,STARLINK-5414,PAYLOAD,2024-06-20 17:06:25,15.08842759,0.0001234,53.2189,323.2855,95.6746,264.4387,0.00010571,1.395e-05,0.0,0 STARLINK-5414,1 54809U 22175BD  24172.71279591  .00001395  00000-0  10571-3 0  9995,2 54809  53.2189 323.2855 0001234  95.6746 264.4387 15.08842759 83320,6917.872,95.437,540.591,538.883,0.0
54809.0,STARLINK-5414,PAYLOAD,2024-06-21 13:46:26,15.08838286,0.0001296,53.2197,319.4219,100.1304,259.9834,8.4157e-05,1.052e-05,0.0,0 STARLINK-5414,1 54809U 22175BD  24173.57392110  .00001052  00000-0  84157-4 0  9995,2 54809  53.2197 319.4219 0001296 100.1304 259.9834 15.08838286 85610,6917.886,95.438,540.647,538.854,0.0
54809.0,STARLINK-5414,PAYLOAD,2024-06-21 15:21:49,15.08839127,0.0001288,53.2194,319.1245,99.9023,260.2114,8.9937e-05,1.144e-05,0.0,0 STARLINK-5414,1 54809U 22175BD  24173.64016041  .00001144  00000-0  89937-4 0  9992,2 54809  53.2194 319.1245 0001288  99.9023 260.2114 15.08839127 83469,6917.883,95.438,540.639,538.857,0.0
54809.0,STARLINK-5414,PAYLOAD,2024-06-22 13:37:13,15.08839845,0.0001178,53.2184,314.9595,87.7673,272.3454,4.1537e-05,3.73e-06,0.0,0 STARLINK-5414,1 54809U 22175BD  24174.56752240  .00000373  00000-0  41537-4 0  9999,2 54809  53.2184 314.9595 0001178  87.7673 272.3454 15.08839845 85766,6917.881,95.438,540.561,538.931,0.0
54809.0,STARLINK-5414,PAYLOAD,2024-06-22 19:58:45,15.08848107,0.0001169,53.2179,313.7686,82.3422,277.7703,9.9252e-05,1.292e-05,0.0,0 STARLINK-5414,1 54809U 22175BD  24174.83247485  .00001292  00000-0  99252-4 0  9997,2 54809  53.2179 313.7686 0001169  82.3422 277.7703 15.08848107 83643,6917.856,95.437,540.529,538.912,0.0
54809.0,STARLINK-5414,PAYLOAD,2024-06-23 13:28:00,15.08838262,0.00013,53.2184,310.4961,95.174,264.94,8.2191e-05,1.02e-05,0.0,0 STARLINK-5414,1 54809U 22175BD  24175.56112100  .00001020  00000-0  82191-4 0  9996,2 54809  53.2184 310.4961 0001300  95.1740 264.9400 15.08838262 85916,6917.886,95.438,540.65,538.851,0.0
